[{"OBJECT_NAME":"STARLINK-32037","OBJECT_ID":"2024-132F","EPOCH":"2026-03-09T09:26:05.274240","MEAN_MOTION":15.30186883,"ECCENTRICITY":0.0001143,"INCLINATION":53.1605,"RA_OF_ASC_NODE":53.9022,"ARG_OF_PERICENTER":97.8508,"MEAN_ANOMALY":262.2622,"EPHEMERIS_TYPE":0,"CLASSIFICATION_TYPE":"U","NORAD_CAT_ID":60283,"ELEMENT_SET_NO":999,"REV_AT_EPOCH":9151,"BSTAR":1.4078825e-5,"MEAN_MOTION_DOT":5.8e-7,"MEAN_MOTION_DDOT":0},{"OBJECT_NAME":"TEVEL2-3","OBJECT_ID":"2025-052J","EPOCH":"2026-03-09T15:29:22.754400","MEAN_MOTION":15.30377031,"ECCENTRICITY":0.0004761,"INCLINATION":97.3994,"RA_OF_ASC_NODE":324.7775,"ARG_OF_PERICENTER":105.7353,"MEAN_ANOMALY":254.4413,"EPHEMERIS_TYPE":0,"CLASSIFICATION_TYPE":"U","NORAD_CAT_ID":63218,"ELEMENT_SET_NO":999,"REV_AT_EPOCH":5485,"BSTAR":0.00069446,"MEAN_MOTION_DOT":0.00020365,"MEAN_MOTION_DDOT":0}]
